[{"OBJECT_NAME":"STARLINK-6048","OBJECT_ID":"2023-064M","EPOCH":"2026-03-09T10:50:18.571776","MEAN_MOTION":14.98327677,"ECCENTRICITY":0.00031903,"INCLINATION":70.0002,"RA_OF_ASC_NODE":144.9282,"ARG_OF_PERICENTER":269.7038,"MEAN_ANOMALY":90.3755,"EPHEMERIS_TYPE":0,"CLASSIFICATION_TYPE":"U","NORAD_CAT_ID":56459,"ELEMENT_SET_NO":999,"REV_AT_EPOCH":15520,"BSTAR":0.00033822676,"MEAN_MOTION_DOT":3.945e-5,"MEAN_MOTION_DDOT":0},{"OBJECT_NAME":"CZ-6A DEB","OBJECT_ID":"2022-151CD","EPOCH":"2026-03-09T04:34:52.178880","MEAN_MOTION":15.04926808,"ECCENTRICITY":0.00436133,"INCLINATION":98.6267,"RA_OF_ASC_NODE":153.8749,"ARG_OF_PERICENTER":159.2339,"MEAN_ANOMALY":201.0669,"EPHEMERIS_TYPE":0,"CLASSIFICATION_TYPE":"U","NORAD_CAT_ID":54334,"ELEMENT_SET_NO":999,"REV_AT_EPOCH":17669,"BSTAR":0.0057373504,"MEAN_MOTION_DOT":0.00083812,"MEAN_MOTION_DDOT":0}]
